{
"type": "FeatureCollection",
"name": "fairfax_study_area",
"crs": { "type": "name", "properties": { "name": "urn:ogc:def:crs:OGC:1.3:CRS84" } },
"features": [
{ "type": "Feature", "properties": { "name": "fairfax_va_bbox" }, "geometry": { "type": "Polygon", "coordinates": [ [ [ -76.95, 38.644927982522248 ], [ -77.6, 38.644927982522248 ], [ -77.604402514763194, 38.645096905025895 ], [ -77.608762630902547, 38.64560204334493 ], [ -77.613038358116171, 38.646438525684886 ], [ -77.617188518813649, 38.647598284837102 ], [ -77.621173144678735, 38.649070136309348 ], [ -77.62495386158615, 38.650839886629321 ], [ -77.628494259165336, 38.65289047075548 ], [ -77.631760241452227, 38.655202117244031 ], [ -77.634720355252, 38.657752539550039 ], [ -77.637346093050624, 38.660517151586021 ], [ -77.639612167557701, 38.663469305426425 ], [ -77.641496755237, 38.666580548833217 ], [ -77.642981706478935, 38.669820900088219 ], [ -77.644052720391286, 38.673159137453816 ], [ -77.644699482524601, 38.676563100446607 ], [ -77.644915764205976, 38.68 ], [ -77.644915764205976, 39.08 ], [ -77.644699482524601, 39.083417441986057 ], [ -77.644052720391286, 39.086801808974812 ], [ -77.642981706478935, 39.090120514717917 ], [ -77.641496755237, 39.09334160972594 ], [ -77.639612167557701, 39.096434088519089 ], [ -77.637346093050624, 39.099368187634227 ], [ -77.634720355252, 39.102115671540957 ], [ -77.631760241452227, 39.104650103740944 ], [ -77.628494259165336, 39.106947100471409 ], [ -77.62495386158615, 39.108984564603787 ], [ -77.621173144678735, 39.11074289752078 ], [ -77.617188518813649, 39.112205186967103 ], [ -77.613038358116171, 39.113357369099162 ], [ -77.608762630902547, 39.114188363204782 ], [ -77.604402514763194, 39.114690177823306 ], [ -77.6, 39.114857987266923 ], [ -76.95, 39.114857987266923 ], [ -76.945597485236817, 39.114690177823306 ], [ -76.941237369097465, 39.114188363204782 ], [ -76.93696164188384, 39.113357369099162 ], [ -76.932811481186349, 39.112205186967103 ], [ -76.928826855321248, 39.11074289752078 ], [ -76.925046138413833, 39.108984564603787 ], [ -76.921505740834647, 39.106947100471409 ], [ -76.918239758547784, 39.104650103740944 ], [ -76.915279644748011, 39.102115671540957 ], [ -76.912653906949387, 39.099368187634227 ], [ -76.910387832442311, 39.096434088519089 ], [ -76.908503244762997, 39.09334160972594 ], [ -76.907018293521062, 39.090120514717917 ], [ -76.905947279608725, 39.086801808974812 ], [ -76.905300517475396, 39.083417441986057 ], [ -76.905084235794021, 39.08 ], [ -76.905084235794021, 38.68 ], [ -76.905300517475396, 38.676563100446607 ], [ -76.905947279608725, 38.673159137453816 ], [ -76.907018293521062, 38.669820900088219 ], [ -76.908503244762997, 38.666580548833217 ], [ -76.910387832442311, 38.663469305426425 ], [ -76.912653906949387, 38.660517151586021 ], [ -76.915279644748011, 38.657752539550039 ], [ -76.918239758547784, 38.655202117244031 ], [ -76.921505740834647, 38.65289047075548 ], [ -76.925046138413833, 38.650839886629321 ], [ -76.928826855321248, 38.649070136309348 ], [ -76.932811481186349, 38.647598284837102 ], [ -76.93696164188384, 38.646438525684886 ], [ -76.941237369097465, 38.64560204334493 ], [ -76.945597485236817, 38.645096905025895 ], [ -76.95, 38.644927982522248 ] ] ] } }
]
}
